NORAD_CAT_ID,OBJECT_NAME,OBJECT_TYPE,EPOCH,MEAN_MOTION,ECCENTRICITY,INCLINATION,RA_OF_ASC_NODE,ARG_OF_PERICENTER,MEAN_ANOMALY,BSTAR,MEAN_MOTION_DOT,MEAN_MOTION_DDOT,TLE_LINE0,TLE_LINE1,TLE_LINE2,SEMIMAJOR_AXIS,PERIOD,APOGEE,PERIGEE,DECAYED
52466.0,STARLINK-3840,PAYLOAD,2024-01-19 02:29:45,15.08847596,0.0001401,53.2187,323.4734,91.1688,268.9465,-1.6434e-06,-3.14e-06,0.0,0 STARLINK-3840,1 52466U 22049R   24019.10399818 -.00000314  00000-0 -16434-5 0  9998,2 52466  53.2187 323.4734 0001401  91.1688 268.9465 15.08847596 94563,6917.857,95.437,540.691,538.753,0.0
52466.0,STARLINK-3840,PAYLOAD,2024-01-19 05:40:31,15.08845741,0.0001295,53.2179,322.8811,99.0416,261.0723,-2.7081e-05,-7.19e-06,0.0,0 STARLINK-3840,1 52466U 22049R   24019.23647903 -.00000719  00000-0 -27081-4 0  9991,2 52466  53.2179 322.8811 0001295  99.0416 261.0723 15.08845741 94426,6917.863,95.437,540.624,538.832,0.0
52466.0,STARLINK-3840,PAYLOAD,2024-01-20 02:20:33,15.08834405,0.0001422,53.2189,319.0125,93.5863,266.5292,-0.00020495,-3.548e-05,0.0,0 STARLINK-3840,1 52466U 22049R   24020.09760913 -.00003548  00000-0 -20495-3 0  9998,2 52466  53.2189 319.0125 0001422  93.5863 266.5292 15.08834405 94718,6917.897,95.438,540.746,538.779,0.0
52466.0,STARLINK-3840,PAYLOAD,2024-01-20 05:31:20,15.08819599,0.0001388,53.2181,318.4197,96.944,263.1711,-8.0293e-05,-1.565e-05,0.0,0 STARLINK-3840,1 52466U 22049R   24020.23009449 -.00001565  00000-0 -80293-4 0  9994,2 52466  53.2181 318.4197 0001388  96.9440 263.1711 15.08819599 94739,6917.943,95.439,540.768,538.848,0.0
52466.0,STARLINK-3840,PAYLOAD,2024-01-20 23:00:34,15.08824017,0.0001347,53.2179,315.1494,91.3818,268.7329,-5.9174e-05,-1.229e-05,0.0,0 STARLINK-3840,1 52466U 22049R   24020.95873642 -.00001229  00000-0 -59174-4 0  9998,2 52466  53.2179 315.1494 0001347  91.3818 268.7329 15.08824017 94684,6917.929,95.439,540.726,538.862,0.0
52466.0,STARLINK-3840,PAYLOAD,2024-01-21 02:11:21,15.08826178,0.0001443,53.2181,314.5545,84.0435,276.0722,-3.8798e-05,-9.05e-06,0.0,0 STARLINK-3840,1 52466U 22049R   24021.09121616 -.00000905  00000-0 -38798-4 0  9990,2 52466  53.2181 314.5545 0001443  84.0435 276.0722 15.08826178 94867,6917.923,95.438,540.786,538.789,0.0
52466.0,STARLINK-3840,PAYLOAD,2024-01-21 22:51:21,15.08825457,0.0001377,53.2185,310.69,93.658,266.457,0.00011195,1.494e-05,0.0,0 STARLINK-3840,1 52466U 22049R   24021.95233761  .00001494  00000-0  11195-3 0  9993,2 52466  53.2185 310.6900 0001377  93.6580 266.4570 15.08825457 94836,6917.925,95.438,540.742,538.837,0.0
52466.0,STARLINK-3840,PAYLOAD,2024-01-22 02:02:08,15.08824301,0.0001331,53.2181,310.0952,94.9221,265.1923,9.8982e-05,1.287e-05,0.0,0 STARLINK-3840,1 52466U 22049R   24022.08481998  .00001287  00000-0  98982-4 0  9995,2 52466  53.2181 310.0952 0001331  94.9221 265.1923 15.08824301 94856,6917.928,95.439,540.714,538.873,0.0
52466.0,STARLINK-3840,PAYLOAD,2024-01-22 22:42:09,15.08833879,0.0001257,53.2175,306.229,101.2067,258.9067,3.4435e-05,2.6e-06,0.0,0 STARLINK-3840,1 52466U 22049R   24022.94594289  .00000260  00000-0  34435-4 0  9991,2 52466  53.2175 306.2290 0001257 101.2067 258.9067 15.08833879 94981,6917.899,95.438,540.634,538.895,0.0
52466.0,STARLINK-3840,PAYLOAD,2024-01-23 00:17:32,15.08833911,0.0001257,53.2175,305.9316,101.2156,258.8977,3.4534e-05,2.62e-06,0.0,0 STARLINK-3840,1 52466U 22049R   24023.01218309  .00000262  00000-0  34534-4 0  9998,2 52466  53.2175 305.9316 0001257 101.2156 258.8977 15.08833911 95151,6917.899,95.438,540.634,538.894,0.0
52466.0,STARLINK-3840,PAYLOAD,2024-01-23 22:32:56,15.08839655,0.0001258,53.2175,301.7679,104.023,256.0903,5.5713e-05,5.99e-06,0.0,0 STARLINK-3840,1 52466U 22049R   24023.93953992  .00000599  00000-0  55713-4 0  9998,2 52466  53.2175 301.7679 0001258 104.0230 256.0903 15.08839655 95130,6917.881,95.438,540.617,538.876,0.0
52466.0,STARLINK-3840,PAYLOAD,2024-01-24 01:43:42,15.08835503,0.0001238,53.2172,301.1722,106.2753,253.8375,1.6703e-05,-2.2e-07,0.0,0 STARLINK-3840,1 52466U 22049R   24024.07202364 -.00000022  00000-0  16703-4 0  9992,2 52466  53.2172 301.1722 0001238 106.2753 253.8375 15.08835503 95318,6917.894,95.438,540.616,538.903,0.0
52466.0,STARLINK-3840,PAYLOAD,2024-01-24 22:23:43,15.08836481,0.0001161,53.2169,297.304,104.1043,256.0079,-3.3435e-05,-8.2e-06,0.0,0 STARLINK-3840,1 52466U 22049R   24024.93314729 -.00000820  00000-0 -33435-4 0  9994,2 52466  53.2169 297.3040 0001161 104.1043 256.0079 15.08836481 95285,6917.891,95.438,540.559,538.953,0.0
52466.0,STARLINK-3840,PAYLOAD,2024-01-25 01:34:30,15.0883578,0.0001183,53.2169,296.7092,106.6284,253.4838,-3.7577e-05,-8.86e-06,0.0,0 STARLINK-3840,1 52466U 22049R   24025.06562796 -.00000886  00000-0 -37577-4 0  9991,2 52466  53.2169 296.7092 0001183 106.6284 253.4838 15.08835780 95301,6917.893,95.438,540.577,538.94,0.0
52466.0,STARLINK-3840,PAYLOAD,2024-01-25 22:14:30,15.08839405,0.0001142,53.2162,292.8479,117.1023,243.0086,6.7533e-05,7.87e-06,0.0,0 STARLINK-3840,1 52466U 22049R   24025.92674123  .00000787  00000-0  67533-4 0  9997,2 52466  53.2162 292.8479 0001142 117.1023 243.0086 15.08839405 95435,6917.882,95.438,540.537,538.957,0.0
52466.0,STARLINK-3840,PAYLOAD,2024-01-26 01:25:16,15.08841776,0.0001169,53.2167,292.2567,104.5889,255.5233,9.0693e-05,1.156e-05,0.0,0 STARLINK-3840,1 52466U 22049R   24026.05921998  .00001156  00000-0  90693-4 0  9991,2 52466  53.2167 292.2567 0001169 104.5889 255.5233 15.08841776 95617,6917.875,95.437,540.549,538.931,0.0
52466.0,STARLINK-3840,PAYLOAD,2024-01-26 23:40:41,15.08831238,0.0001466,53.217,288.0947,76.7314,283.3841,8.2193e-05,1.02e-05,0.0,0 STARLINK-3840,1 52466U 22049R   24026.98658961  .00001020  00000-0  82193-4 0  9996,2 52466  53.2170 288.0947 0001466  76.7314 283.3841 15.08831238 95750,6917.907,95.438,540.786,538.758,0.0
52466.0,STARLINK-3840,PAYLOAD,2024-01-27 20:20:41,15.08840475,0.0001411,53.2169,284.2317,82.3508,277.7644,1.2809e-05,-8.4e-07,0.0,0 STARLINK-3840,1 52466U 22049R   24027.84770654 -.00000084  00000-0  12809-4 0  9993,2 52466  53.2169 284.2317 0001411  82.3508 277.7644 15.08840475 95880,6917.879,95.438,540.72,538.768,0.0
52466.0,STARLINK-3840,PAYLOAD,2024-01-27 21:56:04,15.08839351,0.0001281,53.2168,283.9305,97.8381,262.2757,-2.2292e-06,-3.23e-06,0.0,0 STARLINK-3840,1 52466U 22049R   24027.91394624 -.00000323  00000-0 -22292-5 0  9995,2 52466  53.2168 283.9305 0001281  97.8381 262.2757 15.08839351 95736,6917.882,95.438,540.634,538.861,0.0
52466.0,STARLINK-3840,PAYLOAD,2024-01-27 23:31:28,15.08837769,0.0001243,53.2163,283.6334,103.8712,256.2419,-1.473e-05,-5.22e-06,0.0,0 STARLINK-3840,1 52466U 22049R   24027.98018735 -.00000522  00000-0 -14730-4 0  9996,2 52466  53.2163 283.6334 0001243 103.8712 256.2419 15.08837769 95744,6917.887,95.438,540.612,538.892,0.0
52466.0,STARLINK-3840,PAYLOAD,2024-01-28 21:46:51,15.08840453,0.0001225,53.2163,279.4688,104.817,255.2958,2.0989e-05,4.6e-07,0.0,0 STARLINK-3840,1 52466U 22049R   24028.90754482  .00000046  00000-0  20989-4 0  9997,2 52466  53.2163 279.4688 0001225 104.8170 255.2958 15.08840453 95884,6917.879,95.438,540.591,538.897,0.0
52466.0,STARLINK-3840,PAYLOAD,2024-01-30 15:06:53,15.088355,0.0001158,53.2157,271.738,99.9717,260.1406,-5.963e-06,-3.83e-06,0.0,0 STARLINK-3840,1 52466U 22049R   24030.62979111 -.00000383  00000-0 -59630-5 0  9999,2 52466  53.2157 271.7380 0001158  99.9717 260.1406 15.08835500 96147,6917.894,95.438,540.56,538.958,0.0
52466.0,STARLINK-3840,PAYLOAD,2024-01-30 19:53:03,15.08834992,0.0001124,53.2162,270.8448,79.2539,280.858,-3.0295e-05,-7.7e-06,0.0,0 STARLINK-3840,1 52466U 22049R   24030.82851372 -.00000770  00000-0 -30295-4 0  9994,2 52466  53.2162 270.8448 0001124  79.2539 280.8580 15.08834992 96331,6917.896,95.438,540.538,538.983,0.0
52466.0,STARLINK-3840,PAYLOAD,2024-01-30 21:28:26,15.08835533,0.0001175,53.216,270.5472,88.8329,271.2798,-2.5787e-05,-6.98e-06,0.0,0 STARLINK-3840,1 52466U 22049R   24030.89475299 -.00000698  00000-0 -25787-4 0  9990,2 52466  53.2160 270.5472 0001175  88.8329 271.2798 15.08835533 96182,6917.894,95.438,540.572,538.946,0.0
52466.0,STARLINK-3840,PAYLOAD,2024-01-31 00:39:12,15.08836312,0.0001192,53.2161,269.9522,91.6649,268.448,-1.9284e-05,-5.95e-06,0.0,0 STARLINK-3840,1 52466U 22049R   24031.02723249 -.00000595  00000-0 -19284-4 0  9998,2 52466  53.2161 269.9522 0001192  91.6649 268.4480 15.08836312 96202,6917.892,95.438,540.581,538.932,0.0
52466.0,STARLINK-3840,PAYLOAD,2024-02-01 00:30:00,15.08835647,0.0001174,53.2156,265.4901,89.0791,271.0336,1.3406e-05,-7.4e-07,0.0,0 STARLINK-3840,1 52466U 22049R   24032.02083440 -.00000074  00000-0  13406-4 0  9992,2 52466  53.2156 265.4901 0001174  89.0791 271.0336 15.08835647 96511,6917.894,95.438,540.571,538.947,0.0
52466.0,STARLINK-3840,PAYLOAD,2024-02-01 16:23:51,15.08835738,0.000123,53.2156,262.5169,81.8557,278.2575,1.8733e-05,1e-07,0.0,0 STARLINK-3840,1 52466U 22049R   24032.68323581  .00000010  00000-0  18733-4 0  9994,2 52466  53.2156 262.5169 0001230  81.8557 278.2575 15.08835738 96456,6917.893,95.438,540.609,538.908,0.0
52466.0,STARLINK-3840,PAYLOAD,2024-02-02 00:20:47,15.08838199,0.0001281,53.2158,261.0299,85.149,274.9648,3.6394e-05,2.91e-06,0.0,0 STARLINK-3840,1 52466U 22049R   24033.01443409  .00000291  00000-0  36394-4 0  9998,2 52466  53.2158 261.0299 0001281  85.1490 274.9648 15.08838199 96509,6917.886,95.438,540.637,538.865,0.0
52466.0,STARLINK-3840,PAYLOAD,2024-02-02 19:25:24,15.08838542,0.0001175,53.215,257.4624,85.5498,274.5628,2.2281e-05,6.7e-07,0.0,0 STARLINK-3840,1 52466U 22049R   24033.80931407  .00000067  00000-0  22281-4 0  9996,2 52466  53.2150 257.4624 0001175  85.5498 274.5628 15.08838542 96782,6917.885,95.438,540.563,538.937,0.0
52466.0,STARLINK-3840,PAYLOAD,2024-02-02 21:00:48,15.08837632,0.0001432,53.2172,257.1633,79.8225,280.2928,1.6049e-05,-3.3e-07,0.0,0 STARLINK-3840,1 52466U 22049R   24033.87555610 -.00000033  00000-0  16049-4 0  9990,2 52466  53.2172 257.1633 0001432  79.8225 280.2928 15.08837632 96633,6917.888,95.438,540.743,538.762,0.0
